GLOBALSTAR M057         
1 25943U 99058A   25187.45481350 -.00000054  00000+0  35733-3 0  9990
2 25943  51.9997 293.5250 0002997  67.7294 292.3873 12.24824453169299
GLOBALSTAR M056         
1 25945U 99058C   25187.44214647 -.00000103  00000+0 -18159-3 0  9993
2 25945  51.9939 156.5465 0000819 234.0467 275.1330 12.04782342164947
GLOBALSTAR M039         
1 25961U 99062A   25187.40572535 -.00000062  00000+0  23204-3 0  9995
2 25961  51.9817 210.1814 0002575  31.1724 328.9295 12.62329426182646
GLOBALSTAR M034         
1 25962U 99062B   25187.88509106 -.00000074  00000+0  11632-3 0  9997
2 25962  51.9896 320.1849 0014754  80.3040  68.1871 11.79446431140711
GLOBALSTAR M029         
1 25963U 99062C   25187.76383924 -.00000063  00000+0  28322-3 0  9995
2 25963  51.9817  42.2312 0002703 138.9337 300.2061 11.99898250171472
GLOBALSTAR M061         
1 25964U 99062D   25187.90731794 -.00000080  00000+0  25107-5 0  9993
2 25964  51.9774 144.4224 0006388   0.7462  33.2160 11.76776468123796
